BEIDOU-2 IGSO-1 (C06)   
1 36828U 10036A   24352.92755281 -.00000071  00000+0  00000+0 0  9999
2 36828  54.2617 167.8993 0043081 205.9280 154.5503  1.00277687 52748
BEIDOU-2 G4 (C04)       
1 37210U 10057A   24353.84367569 -.00000107  00000+0  00000+0 0  9998
2 37210   2.2955  70.2501 0009768 187.5706 293.8652  1.00271794 51818
BEIDOU-2 IGSO-2 (C07)   
1 37256U 10068A   24353.72062791 -.00000205  00000+0  00000+0 0  9995
2 37256  48.5410 278.5662 0040083 215.7922 319.1370  1.00294201 51319
BEIDOU-2 IGSO-3 (C08)   
1 37384U 11013A   24353.58518532 -.00000184  00000+0  00000+0 0  9997
2 37384  61.6218  45.3373 0030742 183.3165 176.2456  1.00262657 50194
BEIDOU-2 IGSO-4 (C09)   
1 37763U 11038A   24352.47279222  .00000004  00000+0  00000+0 0  9992
2 37763  54.5672 170.5552 0130632 228.4897 313.9487  1.00269441 49169
BEIDOU-2 IGSO-5 (C10)   
1 37948U 11073A   24351.89708387 -.00000197  00000+0  00000+0 0  9994
2 37948  48.6797 278.2852 0102245 220.9867   3.9531  1.00290957 47641
BEIDOU-2 G5 (C05)       
1 38091U 12008A   24353.18035177  .00000060  00000+0  00000+0 0  9995
2 38091   2.2144  71.0495 0012289 226.8484 273.0704  1.00275169 46899
BEIDOU-2 M3 (C11)       
1 38250U 12018A   24353.10714623 -.00000089  00000+0  00000+0 0  9997
2 38250  56.2083 323.2089 0025084 269.2980  90.4016  1.86233609 86121
BEIDOU-2 M4 (C12)       
1 38251U 12018B   24353.57477121 -.00000088  00000+0  00000+0 0  9997
2 38251  56.1131 322.4510 0016017 272.8365  86.9683  1.86232084 86135
BEIDOU-2 M6 (C14)       
1 38775U 12050B   24352.74759089 -.00000044  00000+0  00000+0 0  9990
2 38775  56.0651  81.0361 0011270 337.6200  22.3451  1.86230929 83486
BEIDOU-2 G6 (C02)       
1 38953U 12059A   24353.11367444 -.00000171  00000+0  00000+0 0  9990
2 38953   3.0309  79.0044 0008100 285.8200 207.3047  1.00269272 44430
BEIDOU-3S IGSO-1S (C31) 
1 40549U 15019A   24353.84636637 -.00000188  00000+0  00000+0 0  9994
2 40549  50.2297 302.0011 0034579 198.1530 348.3085  1.00263205 35593
BEIDOU-3S M2S (C58)     
1 40748U 15037A   24353.23870519 -.00000089  00000+0  00000+0 0  9997
2 40748  55.3398 320.7675 0012556 264.4357  95.4087  1.86229078 63957
BEIDOU-3S M1S (C57)     
1 40749U 15037B   24352.43822077 -.00000090  00000+0  00000+0 0  9997
2 40749  55.3432 320.7815 0004491 326.6833  33.2741  1.86227586 63939
BEIDOU-3S IGSO-2S (C56) 
1 40938U 15053A   24352.73153382 -.00000130  00000+0  00000+0 0  9999
2 40938  50.0714 265.2566 0051738 188.4208 352.3958  1.00263900 33877
BEIDOU-2 IGSO-6 (C13)   
1 41434U 16021A   24353.64683663 -.00000167  00000+0  00000+0 0  9998
2 41434  59.4502  43.4930 0055326 226.9528 147.0865  1.00279099 32004
BEIDOU-2 G7 (C03)       
1 41586U 16037A   24353.33352216 -.00000349  00000+0  00000+0 0  9998
2 41586   1.8219  67.5156 0007469 337.5936 272.8483  1.00265963  1411
BEIDOU-3 M1 (C19)       
1 43001U 17069A   24352.51342881 -.00000044  00000+0  00000+0 0  9996
2 43001  56.2148  81.1637 0009215 297.4503  62.4691  1.86231159 48421
BEIDOU-3 M2 (C20)       
1 43002U 17069B   24352.98800579 -.00000042  00000+0  00000+0 0  9999
2 43002  56.2141  81.1844 0006576 322.2795  37.6896  1.86230909 48425
BEIDOU-3 M7 (C27)       
1 43107U 18003A   24352.73538444 -.00000091  00000+0  00000+0 0  9990
2 43107  54.7987 321.2948 0002748  55.1242 304.8885  1.86232350 47171
BEIDOU-3 M8 (C28)       
1 43108U 18003B   24353.21429433 -.00000090  00000+0  00000+0 0  9991
2 43108  54.7913 321.2629 0004985 272.1707  87.7601  1.86230843 47199
BEIDOU-3 M4 (C22)       
1 43207U 18018A   24352.58156154 -.00000044  00000+0  00000+0 0  9992
2 43207  56.1738  81.2442 0003983   0.2092 359.8041  1.86231090 46566
BEIDOU-3 M3 (C21)       
1 43208U 18018B   24353.72206445 -.00000040  00000+0  00000+0 0  9995
2 43208  56.1742  81.2106 0006715 308.9546  51.0036  1.86231307 46585
BEIDOU-3 M9 (C29)       
1 43245U 18029A   24353.40466172 -.00000088  00000+0  00000+0 0  9990
2 43245  54.6755 318.9611 0002045 280.2561  79.7091  1.86232625 45733
BEIDOU-3 M10 (C30)      
1 43246U 18029B   24353.33407907 -.00000089  00000+0  00000+0 0  9995
2 43246  54.6733 318.9915 0004240 350.0865   9.8931  1.86232775 45721
BEIDOU-2 IGSO-7 (C16)   
1 43539U 18057A   24353.90570840 -.00000073  00000+0  00000+0 0  9994
2 43539  55.1551 167.7756 0078675 232.0600 125.5909  1.00255504 23663
BEIDOU-3 M5 (C23)       
1 43581U 18062A   24351.94918295  .00000059  00000+0  00000+0 0  9992
2 43581  54.1129 200.9129 0001940 347.6697  12.3997  1.86228772 43443
BEIDOU-3 M6 (C24)       
1 43582U 18062B   24352.88794730  .00000048  00000+0  00000+0 0  9991
2 43582  54.1122 200.8704 0007403  41.9038 318.2210  1.86229829 43460
BEIDOU-3 M12 (C26)      
1 43602U 18067A   24351.74813294  .00000062  00000+0  00000+0 0  9996
2 43602  54.2044 199.6075 0008660  35.5874 324.5438  1.86227737 42924
BEIDOU-3 M11 (C25)      
1 43603U 18067B   24352.95558008  .00000049  00000+0  00000+0 0  9995
2 43603  54.2015 199.5311 0005252  32.0690 328.0285  1.86227272 42975
BEIDOU-3 M13 (C32)      
1 43622U 18072A   24352.91616039 -.00000043  00000+0  00000+0 0  9992
2 43622  56.1455  80.7594 0006089 290.7272  69.2232  1.86231014 42488
BEIDOU-3 M14 (C33)      
1 43623U 18072B   24352.78163018 -.00000044  00000+0  00000+0 0  9993
2 43623  56.1472  80.7573 0003336 319.9335  40.0569  1.86230989 42470
BEIDOU-3 M16 (C35)      
1 43647U 18078A   24353.48002546 -.00000089  00000+0  00000+0 0  9990
2 43647  54.5723 319.0424 0007206   9.1735 350.8280  1.86232298 42008
BEIDOU-3 M15 (C34)      
1 43648U 18078B   24353.07222665 -.00000089  00000+0  00000+0 0  9992
2 43648  54.5682 319.0587 0003955   6.6826 353.3100  1.86232126 42002
BEIDOU-3 G1 (C59)       
1 43683U 18085A   24353.39909420 -.00000274  00000+0  00000+0 0  9991
2 43683   2.6501 103.1597 0001355  69.0035 199.0752  1.00272836 22582
BEIDOU-3 M17 (C36)      
1 43706U 18093A   24353.22527216  .00000046  00000+0  00000+0 0  9993
2 43706  54.1959 200.8215 0006352 300.4843  59.5191  1.86228487 41350
BEIDOU-3 M18 (C37)      
1 43707U 18093B   24353.08910583  .00000047  00000+0  00000+0 0  9992
2 43707  54.1971 200.8179 0006229 342.6548  17.3908  1.86230003 41363
BEIDOU-3 IGSO-1 (C38)   
1 44204U 19023A   24353.04903536 -.00000220  00000+0  00000+0 0  9999
2 44204  57.9126  43.3043 0023877 222.4435 315.4787  1.00299227  1730
BEIDOU-2 G8 (C01)       
1 44231U 19027A   24353.40401047 -.00000243  00000+0  00000+0 0  9998
2 44231   1.9368  74.8016 0005091 203.9468  98.7708  1.00270537 20608
BEIDOU-3 IGSO-2 (C39)   
1 44337U 19035A   24353.33466405 -.00000084  00000+0  00000+0 0  9998
2 44337  55.1931 163.6523 0035358 196.7375 325.3409  1.00282439 20226
BEIDOU-3 M24 (C46)      
1 44542U 19061A   24352.08532376  .00000057  00000+0  00000+0 0  9996
2 44542  54.4236 201.1830 0009102  17.6848 342.4208  1.86229318 35603
BEIDOU-3 M23 (C45)      
1 44543U 19061B   24352.47878698  .00000053  00000+0  00000+0 0  9996
2 44543  54.4221 201.1382 0005745  15.8968 160.6160  1.86229581 35612
BEIDOU-3 IGSO-3 (C40)   
1 44709U 19073A   24352.23357859 -.00000204  00000+0  00000+0 0  9997
2 44709  55.7405 286.7839 0041306 185.2255 174.7215  1.00301340 18971
BEIDOU-3 M22 (C44)      
1 44793U 19078A   24352.46634027 -.00000090  00000+0  00000+0 0  9998
2 44793  54.4203 318.9872 0005930  12.7933 347.2077  1.86231963 34463
BEIDOU-3 M21 (C43)      
1 44794U 19078B   24352.59566454 -.00000090  00000+0  00000+0 0  9991
2 44794  54.3938 318.9547 0004136 359.4605   0.5254  1.86232016 34478
BEIDOU-3 M19 (C41)      
1 44864U 19090A   24352.28290976 -.00000046  00000+0  00000+0 0  9993
2 44864  56.0796  80.9412 0017657 279.6851  62.5654  1.86231410 34044
BEIDOU-3 M20 (C42)      
1 44865U 19090B   24353.32767552 -.00000042  00000+0  00000+0 0  9995
2 44865  56.0822  80.9400 0015034 292.3401 120.0661  1.86231443 34046
BEIDOU-3 G2 (C60)       
1 45344U 20017A   24353.84418175 -.00000137  00000+0  00000+0 0  9995
2 45344   2.5748  35.9508 0004646 229.6562 206.2592  1.00270989 17808
BEIDOU-3 G3 (C61)       
1 45807U 20040A   24353.33360904 -.00000350  00000+0  00000+0 0  9992
2 45807   1.1458  57.7772 0003430 299.5088 320.7781  1.00275060 16591
BEIDOU-3 G4 (C62)       
1 56564U 23066A   24353.84367569 -.00000105  00000+0  00000+0 0  9993
2 56564   1.6637 289.2470 0003769 268.1283 354.2803  1.00270612  5939
BEIDOU-3 M28 (C50)      
1 58654U 23207A   24353.21570236 -.00000044  00000+0  00000+0 0  9992
2 58654  55.2658  80.7984 0002653 256.7644 103.2220  1.86231987  6671
BEIDOU-3 M26 (C48)      
1 58655U 23207B   24353.01508906 -.00000044  00000+0  00000+0 0  9996
2 58655  55.2676  80.7909 0003968 244.8439 115.1300  1.86231463  6657
